[{"OBJECT_NAME":"STARLINK-4317","OBJECT_ID":"2022-077R","EPOCH":"2026-03-10T00:00:02.999808","MEAN_MOTION":15.0405779,"ECCENTRICITY":0.00013405,"INCLINATION":97.6024,"RA_OF_ASC_NODE":250.4886,"ARG_OF_PERICENTER":90.6985,"MEAN_ANOMALY":78.9101,"EPHEMERIS_TYPE":0,"CLASSIFICATION_TYPE":"U","NORAD_CAT_ID":53058,"ELEMENT_SET_NO":999,"REV_AT_EPOCH":577,"BSTAR":0.0028198644,"MEAN_MOTION_DOT":0.00039151,"MEAN_MOTION_DDOT":0},{"OBJECT_NAME":"BLACK ARROW R\/B","OBJECT_ID":"1971-093B","EPOCH":"2026-03-09T22:36:05.554944","MEAN_MOTION":14.00366378,"ECCENTRICITY":0.05041089,"INCLINATION":82.0373,"RA_OF_ASC_NODE":52.5877,"ARG_OF_PERICENTER":268.267,"MEAN_ANOMALY":86.0721,"EPHEMERIS_TYPE":0,"CLASSIFICATION_TYPE":"U","NORAD_CAT_ID":5581,"ELEMENT_SET_NO":999,"REV_AT_EPOCH":73271,"BSTAR":0.00039679437,"MEAN_MOTION_DOT":1.821e-5,"MEAN_MOTION_DDOT":0}]
